window._tle = "PEGASUS\n1 42784U 17036V   21199.94312562  .00001497  00000-0  63465-4 0  9995\n2 42784  97.2480 248.0096 0013082  71.8325 288.4336 15.24564831226155";
